{
    "links": {
        "self": "http://www.neowsapp.com/rest/v1/neo/3824106?api_key=iIulBulltgU6a56xZRHN4H3l9WmuAYTsLGpBGhQ2"
    },
    "id": "3824106",
    "neo_reference_id": "3824106",
    "name": "(2018 JZ2)",
    "designation": "2018 JZ2",
    "nasa_jpl_url": "http://ssd.jpl.nasa.gov/sbdb.cgi?sstr=3824106",
    "absolute_magnitude_h": 21.7,
    "estimated_diameter": {
        "kilometers": {
            "estimated_diameter_min": 0.1214940408,
            "estimated_diameter_max": 0.2716689341
        },
        "meters": {
            "estimated_diameter_min": 121.4940407996,
            "estimated_diameter_max": 271.6689340891
        },
        "miles": {
            "estimated_diameter_min": 0.0754928736,
            "estimated_diameter_max": 0.1688071972
        },
        "feet": {
            "estimated_diameter_min": 398.6025088171,
            "estimated_diameter_max": 891.3023057169
        }
    },
    "is_potentially_hazardous_asteroid": false,
    "close_approach_data": [
        {
            "close_approach_date": "2005-04-23",
            "close_approach_date_full": "2005-Apr-23 10:31",
            "epoch_date_close_approach": 1114252260000,
            "relative_velocity": {
                "kilometers_per_second": "17.1903758601",
                "kilometers_per_hour": "61885.353096333",
                "miles_per_hour": "38453.1517614409"
            },
            "miss_distance": {
                "astronomical": "0.3572511909",
                "lunar": "138.9707132601",
                "kilometers": "53444017.213603383",
                "miles": "33208572.3945693654"
            },
            "orbiting_body": "Earth"
        },
        {
            "close_approach_date": "2018-04-17",
            "close_approach_date_full": "2018-Apr-17 19:33",
            "epoch_date_close_approach": 1523993580000,
            "relative_velocity": {
                "kilometers_per_second": "12.9885491854",
                "kilometers_per_hour": "46758.777067435",
                "miles_per_hour": "29054.0856728181"
            },
            "miss_distance": {
                "astronomical": "0.3381888918",
                "lunar": "131.5554789102",
                "kilometers": "50592337.870940466",
                "miles": "31436621.0175157908"
            },
            "orbiting_body": "Earth"
        }
    ],
    "orbital_data": {
        "orbit_id": "6",
        "orbit_determination_date": "2018-07-01 06:22:42",
        "first_observation_date": "2018-05-12",
        "last_observation_date": "2018-06-14",
        "data_arc_in_days": 33,
        "observations_used": 57,
        "orbit_uncertainty": "7",
        "minimum_orbit_intersection": ".231705",
        "jupiter_tisserand_invariant": "3.424",
        "epoch_osculation": "2459000.5",
        "eccentricity": ".4657479111777779",
        "semi_major_axis": "2.183684266959308",
        "inclination": "24.80367007992539",
        "ascending_node_longitude": "218.6685092864582",
        "orbital_period": "1178.645478536017",
        "perihelion_distance": "1.166637880951233",
        "perihelion_argument": "318.9834804703866",
        "aphelion_distance": "3.200730652967382",
        "perihelion_time": "2459359.163408832694",
        "mean_anomaly": "250.4515144450841",
        "mean_motion": ".3054353548678201",
        "equinox": "J2000",
        "orbit_class": {
            "orbit_class_type": "AMO",
            "orbit_class_description": "Near-Earth asteroid orbits similar to that of 1221 Amor",
            "orbit_class_range": "1.017 AU < q (perihelion) < 1.3 AU"
        }
    },
    "is_sentry_object": false
}